ION SCV-004             
1 50993U 22002K   26068.68892644  .00006538  00000+0  23198-3 0  9998
2 50993  97.2961 128.2294 0007216   1.6783 358.4480 15.29369331230088
STARLINK-31437          
1 60057U 24112V   26068.43428554 -.00002014  00000+0 -55929-4 0  9997
2 60057  53.1602  79.4530 0001233  73.8346 286.2790 15.30181601 98552
